0 DELTA 1 DEB *
1 18591U 76077FD  13280.97542366 -.00008442  00000-0 -17628+0 0  5503
2 18591 101.1061 087.2902 1111365 060.8494 051.4043 10.60560239101262
0 DELTA 1 DEB *
1 18591U 76077FD  13283.40118986 -.00000015  00000-0  10000-3 0  5510
2 18591 101.1166 088.8542 1114429 057.3014 313.2400 10.60567039101528
0 DELTA 1 DEB *
1 18591U 76077FD  13285.39608299 -.00000673  00000-0 -13589-1 0  5548
2 18591 101.1110 090.1487 1113644 054.4650 009.9469 10.60562329101737
0 DELTA 1 DEB *
1 18591U 76077FD  13286.42242887 -.00001539  00000-0 -31660-1 0  5553
2 18591 101.1103 090.8144 1113186 053.0655 328.6037 10.60578277101840
0 DELTA 1 DEB *
1 18591U 76077FD  13288.41180123  .00000067  00000-0  18199-2 0  5565
2 18591 101.1117 092.1023 1114453 050.2472 004.2443 10.60578154102056
0 DELTA 1 DEB *
1 18591U 76077FD  13288.99213984  .00000051  00000-0  14728-2 0  5578
2 18591 101.1079 092.4933 1116226 049.4108 060.0879 10.60589255102116
0 DELTA 1 DEB *
1 18591U 76077FD  13289.93648221 -.00000234  00000-0 -44248-2 0  5585
2 18591 101.1068 093.1059 1116235 048.1074 065.6878 10.60582932102215
0 DELTA 1 DEB *
1 18591U 76077FD  13291.42113750  .00000434  00000-0  94006-2 0  5594
2 18591 101.1072 094.0722 1116329 046.0460 334.3017 10.60590270102379
0 DELTA 1 DEB *
1 18591U 76077FD  13291.43001046 -.00000979  00000-0 -19822-1 0  5609
2 18591 101.1026 094.0884 1117203 046.0393 008.1723 10.60589177102378
0 DELTA 1 DEB *
1 18591U 76077FD  13294.43622202 -.00000016  00000-0  10000-3 0  5618
2 18591 101.1062 096.0265 1119329 041.8193 326.3824 10.60597377102698
